NORAD_CAT_ID,OBJECT_NAME,OBJECT_TYPE,EPOCH,MEAN_MOTION,ECCENTRICITY,INCLINATION,RA_OF_ASC_NODE,ARG_OF_PERICENTER,MEAN_ANOMALY,BSTAR,MEAN_MOTION_DOT,MEAN_MOTION_DDOT,TLE_LINE0,TLE_LINE1,TLE_LINE2,SEMIMAJOR_AXIS,PERIOD,APOGEE,PERIGEE,DECAYED
56493.0,STARLINK-5841,PAYLOAD,2023-11-12 10:43:21,15.69924786,0.0003248,69.9999,83.1153,280.5112,79.5718,3.3947e-05,3.871e-05,0.0,0 STARLINK-5841,1 56493U 23064AX  23316.44677642  .00003871  00000-0  33947-4 0  9996,2 56493  69.9999  83.1153 0003248 280.5112  79.5718 15.69924786 29529,6737.249,91.724,361.302,356.926,0.0
56493.0,STARLINK-5841,PAYLOAD,2023-11-12 12:15:06,15.69925903,0.000325,70.0001,82.936,280.7992,79.2838,3.1491e-05,3.576e-05,0.0,0 STARLINK-5841,1 56493U 23064AX  23316.51049285  .00003576  00000-0  31491-4 0  9994,2 56493  70.0001  82.9360 0003250 280.7992  79.2838 15.69925903 29188,6737.246,91.724,361.301,356.921,0.0
56493.0,STARLINK-5841,PAYLOAD,2023-11-12 18:22:08,15.6989386,0.0002533,70.0016,82.2198,280.0858,80.0052,-7.796e-05,-9.562e-05,0.0,0 STARLINK-5841,1 56493U 23064AX  23316.76537076 -.00009562  00000-0 -77960-4 0  9995,2 56493  70.0016  82.2198 0002533 280.0858  80.0052 15.69893860 29570,6737.338,91.726,360.909,357.496,0.0
56493.0,STARLINK-5841,PAYLOAD,2023-11-13 11:11:26,15.69904767,0.0002952,70.0,80.2495,277.2474,82.8386,5.1183e-05,5.941e-05,0.0,0 STARLINK-5841,1 56493U 23064AX  23317.46628117  .00005941  00000-0  51183-4 0  9994,2 56493  70.0000  80.2495 0002952 277.2474  82.8386 15.69904767 29331,6737.306,91.725,361.16,357.183,0.0
56493.0,STARLINK-5841,PAYLOAD,2023-11-13 18:50:11,15.6992171,0.0002438,69.9996,79.3537,264.7502,95.3416,5.4795e-05,6.38e-05,0.0,0 STARLINK-5841,1 56493U 23064AX  23317.78486047  .00006380  00000-0  54795-4 0  9993,2 56493  69.9996  79.3537 0002438 264.7502  95.3416 15.69921710 29385,6737.258,91.724,360.766,357.48,0.0
56493.0,STARLINK-5841,PAYLOAD,2023-11-14 11:39:25,15.69957669,0.0002972,70.0012,77.3843,290.9669,69.1208,0.00010815,0.00012829,0.0,0 STARLINK-5841,1 56493U 23064AX  23318.48571496  .00012829  00000-0  10815-3 0  9993,2 56493  70.0012  77.3843 0002972 290.9669  69.1208 15.69957669 29844,6737.155,91.722,361.022,357.018,0.0
56493.0,STARLINK-5841,PAYLOAD,2023-11-14 14:42:56,15.69952037,0.0002552,70.0007,77.0257,273.0444,87.0459,8.9368e-05,0.00010558,0.0,0 STARLINK-5841,1 56493U 23064AX  23318.61314895  .00010558  00000-0  89368-4 0  9993,2 56493  70.0007  77.0257 0002552 273.0444  87.0459 15.69952037 29516,6737.171,91.723,360.756,357.317,0.0
56493.0,STARLINK-5841,PAYLOAD,2023-11-14 17:46:26,15.69936604,0.0003302,70.0011,76.6682,278.5447,81.5375,5.7923e-05,6.761e-05,0.0,0 STARLINK-5841,1 56493U 23064AX  23318.74058849  .00006761  00000-0  57923-4 0  9994,2 56493  70.0011  76.6682 0003302 278.5447  81.5375 15.69936604 29883,6737.215,91.723,361.305,356.856,0.0
56493.0,STARLINK-5841,PAYLOAD,2023-11-15 10:35:43,15.69935334,0.0003265,70.0001,74.6969,282.3329,77.7501,1.3461e-05,1.407e-05,0.0,0 STARLINK-5841,1 56493U 23064AX  23319.44147257  .00001407  00000-0  13461-4 0  9995,2 56493  70.0001  74.6969 0003265 282.3329  77.7501 15.69935334 29997,6737.219,91.724,361.284,356.884,0.0
56493.0,STARLINK-5841,PAYLOAD,2023-11-15 18:14:28,15.69938735,0.000328,70.0002,73.8013,282.0532,78.0296,3.7617e-06,2.4e-06,0.0,0 STARLINK-5841,1 56493U 23064AX  23319.76004966  .00000240  00000-0  37617-5 0  9993,2 56493  70.0002  73.8013 0003280 282.0532  78.0296 15.69938735 29699,6737.209,91.723,361.284,356.864,0.0
56493.0,STARLINK-5841,PAYLOAD,2023-11-16 09:31:57,15.69955903,0.0002814,69.9992,72.0083,269.1506,90.9367,-9.6509e-05,-0.00011815,0.0,0 STARLINK-5841,1 56493U 23064AX  23320.39719460 -.00011815  00000-0 -96509-4 0  9992,2 56493  69.9992  72.0083 0002814 269.1506  90.9367 15.69955903 29790,6737.16,91.722,360.921,357.129,0.0
56493.0,STARLINK-5841,PAYLOAD,2023-11-17 10:00:00,15.69920704,0.0003357,69.9989,69.1421,268.3588,91.7223,6.5032e-06,5.69e-06,0.0,0 STARLINK-5841,1 56493U 23064AX  23321.41667763  .00000569  00000-0  65032-5 0  9994,2 56493  69.9989  69.1421 0003357 268.3588  91.7223 15.69920704 30303,6737.261,91.724,361.388,356.864,0.0
56493.0,STARLINK-5841,PAYLOAD,2023-11-18 10:28:02,15.69926023,0.0002839,69.9961,66.2731,244.9559,115.1342,2.0497e-05,2.253e-05,0.0,0 STARLINK-5841,1 56493U 23064AX  23322.43614070  .00002253  00000-0  20497-4 0  9997,2 56493  69.9961  66.2731 0002839 244.9559 115.1342 15.69926023 30467,6737.246,91.724,361.023,357.198,0.0
56493.0,STARLINK-5841,PAYLOAD,2023-11-18 13:31:33,15.69904698,0.0003341,69.9971,65.9175,274.6423,85.4391,5.4056e-05,6.287e-05,0.0,0 STARLINK-5841,1 56493U 23064AX  23322.56358438  .00006287  00000-0  54056-4 0  9993,2 56493  69.9971  65.9175 0003341 274.6423  85.4391 15.69904698 30136,6737.307,91.725,361.423,356.921,0.0
56493.0,STARLINK-5841,PAYLOAD,2023-11-18 16:35:03,15.69905362,0.0003185,69.9974,65.5594,273.913,86.1702,5.5912e-05,6.51e-05,0.0,0 STARLINK-5841,1 56493U 23064AX  23322.69101848  .00006510  00000-0  55912-4 0  9999,2 56493  69.9974  65.5594 0003185 273.9130  86.1702 15.69905362 30507,6737.305,91.725,361.316,357.024,0.0
56493.0,STARLINK-5841,PAYLOAD,2023-11-19 00:13:48,15.69926005,0.0003204,69.9976,64.6638,276.4971,83.586,1.549e-05,1.65e-05,0.0,0 STARLINK-5841,1 56493U 23064AX  23323.00959361  .00001650  00000-0  15490-4 0  9993,2 56493  69.9976  64.6638 0003204 276.4971  83.5860 15.69926005 30559,6737.246,91.724,361.269,356.952,0.0
56493.0,STARLINK-5841,PAYLOAD,2023-11-19 09:24:19,15.69915796,0.0003152,69.9976,63.5901,272.7434,87.3401,3.3006e-05,3.756e-05,0.0,0 STARLINK-5841,1 56493U 23064AX  23323.39189672  .00003756  00000-0  33006-4 0  9997,2 56493  69.9976  63.5901 0003152 272.7434  87.3401 15.69915796 30610,6737.275,91.725,361.263,357.016,0.0
56493.0,STARLINK-5841,PAYLOAD,2023-11-19 17:03:05,15.69919882,0.0003142,69.9984,62.6952,270.3235,89.7601,1.2932e-05,1.342e-05,0.0,0 STARLINK-5841,1 56493U 23064AX  23323.71048203  .00001342  00000-0  12932-4 0  9991,2 56493  69.9984  62.6952 0003142 270.3235  89.7601 15.69919882 30312,6737.263,91.724,361.245,357.011,0.0
56493.0,STARLINK-5841,PAYLOAD,2023-11-20 12:55:51,15.69925367,0.0003434,69.9985,60.3678,272.2633,87.8169,1.1832e-05,1.21e-05,0.0,0 STARLINK-5841,1 56493U 23064AX  23324.53879376  .00001210  00000-0  11832-4 0  9997,2 56493  69.9985  60.3678 0003434 272.2633  87.8169 15.69925367 30795,6737.248,91.724,361.426,356.799,0.0
56493.0,STARLINK-5841,PAYLOAD,2023-11-20 15:59:22,15.69926214,0.000318,69.9982,60.0076,270.8621,89.2211,1.0565e-05,1.058e-05,0.0,0 STARLINK-5841,1 56493U 23064AX  23324.66622717  .00001058  00000-0  10565-4 0  9998,2 56493  69.9982  60.0076 0003180 270.8621  89.2211 15.69926214 30460,6737.245,91.724,361.253,356.968,0.0
56493.0,STARLINK-5841,PAYLOAD,2023-11-21 08:48:38,15.69923813,0.0003214,69.998,58.0363,267.884,92.1987,1.1734e-05,1.198e-05,0.0,0 STARLINK-5841,1 56493U 23064AX  23325.36711163  .00001198  00000-0  11734-4 0  9994,2 56493  69.9980  58.0363 0003214 267.8840  92.1987 15.69923813 30578,6737.252,91.724,361.282,356.952,0.0
56493.0,STARLINK-5841,PAYLOAD,2023-11-21 16:27:23,15.69929101,0.0002953,69.9995,57.1412,266.1255,93.9603,9.0044e-07,-1.04e-06,0.0,0 STARLINK-5841,1 56493U 23064AX  23325.68569416 -.00000104  00000-0  90044-6 0  9991,2 56493  69.9995  57.1412 0002953 266.1255  93.9603 15.69929101 30626,6737.237,91.724,361.091,357.112,0.0
56493.0,STARLINK-5841,PAYLOAD,2023-11-22 13:51:56,15.69917017,0.0003104,69.9979,54.6327,268.6978,91.3862,-5.0123e-07,-2.73e-06,0.0,0 STARLINK-5841,1 56493U 23064AX  23326.57773539 -.00000273  00000-0 -50123-6 0  9995,2 56493  69.9979  54.6327 0003104 268.6978  91.3862 15.69917017 30760,6737.271,91.725,361.228,357.045,0.0
56493.0,STARLINK-5841,PAYLOAD,2023-11-22 15:23:41,15.69922185,0.0003378,69.9984,54.4552,267.486,92.5949,4.3766e-06,3.13e-06,0.0,0 STARLINK-5841,1 56493U 23064AX  23326.64144923  .00000313  00000-0  43766-5 0  9999,2 56493  69.9984  54.4552 0003378 267.4860  92.5949 15.69922185 31126,6737.257,91.724,361.397,356.846,0.0
56493.0,STARLINK-5841,PAYLOAD,2023-11-23 14:19:58,15.69909288,0.0003611,70.0019,51.769,276.7222,83.3562,-2.5026e-05,-3.219e-05,0.0,0 STARLINK-5841,1 56493U 23064AX  23327.59720223 -.00003219  00000-0 -25026-4 0  9995,2 56493  70.0019  51.7690 0003611 276.7222  83.3562 15.69909288 30921,6737.294,91.725,361.591,356.726,0.0
56493.0,STARLINK-5841,PAYLOAD,2023-11-23 15:51:43,15.69902079,0.0003306,70.0007,51.5878,270.376,89.7057,-4.1697e-05,-5.219e-05,0.0,0 STARLINK-5841,1 56493U 23064AX  23327.66092185 -.00005219  00000-0 -41697-4 0  9996,2 56493  70.0007  51.5878 0003306 270.3760  89.7057 15.69902079 31282,6737.314,91.725,361.407,356.952,0.0
56493.0,STARLINK-5841,PAYLOAD,2023-11-24 08:40:59,15.69925564,0.0003059,70.0004,49.6178,267.1319,92.9527,4.7052e-06,3.53e-06,0.0,0 STARLINK-5841,1 56493U 23064AX  23328.36179719  .00000353  00000-0  47052-5 0  9997,2 56493  70.0004  49.6178 0003059 267.1319  92.9527 15.69925564 31393,6737.247,91.724,361.173,357.051,0.0
56493.0,STARLINK-5841,PAYLOAD,2023-11-24 13:16:14,15.69923854,0.0003274,70.0003,49.0797,272.7679,87.3142,3.3404e-06,1.89e-06,0.0,0 STARLINK-5841,1 56493U 23064AX  23328.55294905  .00000189  00000-0  33404-5 0  9996,2 56493  70.0003  49.0797 0003274 272.7679  87.3142 15.69923854 31079,6737.252,91.724,361.323,356.911,0.0
56493.0,STARLINK-5841,PAYLOAD,2023-11-24 16:19:45,15.69922402,0.000321,69.9981,48.7213,264.3608,95.7222,8.7369e-07,-1.08e-06,0.0,0 STARLINK-5841,1 56493U 23064AX  23328.68038457 -.00000108  00000-0  87369-6 0  9990,2 56493  69.9981  48.7213 0003210 264.3608  95.7222 15.69922402 31091,6737.256,91.724,361.284,356.958,0.0
56493.0,STARLINK-5841,PAYLOAD,2023-11-25 13:44:17,15.69915019,0.0002822,69.9991,46.2134,267.1484,92.9389,3.3681e-05,3.837e-05,0.0,0 STARLINK-5841,1 56493U 23064AX  23329.57241955  .00003837  00000-0  33681-4 0  9995,2 56493  69.9991  46.2134 0002822 267.1484  92.9389 15.69915019 31233,6737.277,91.725,361.043,357.241,0.0
